NORAD_CAT_ID,OBJECT_NAME,OBJECT_TYPE,EPOCH,MEAN_MOTION,ECCENTRICITY,INCLINATION,RA_OF_ASC_NODE,ARG_OF_PERICENTER,MEAN_ANOMALY,BSTAR,MEAN_MOTION_DOT,MEAN_MOTION_DDOT,TLE_LINE0,TLE_LINE1,TLE_LINE2,SEMIMAJOR_AXIS,PERIOD,APOGEE,PERIGEE,DECAYED
51106.0,STARLINK-3176,PAYLOAD,2024-05-21 22:06:47,15.08846309,0.0001075,53.2177,357.4698,88.3323,271.7792,0.00018238,2.616e-05,0.0,0 STARLINK-3176,1 51106U 22005C   24142.92138316  .00002616  00000-0  18238-3 0  9998,2 51106  53.2177 357.4698 0001075  88.3323 271.7792 15.08846309129722,6917.861,95.437,540.47,538.982,0.0
51106.0,STARLINK-3176,PAYLOAD,2024-05-22 20:22:11,15.08841626,0.0001229,53.2183,353.3055,79.3191,280.7939,0.00010849,1.439e-05,0.0,0 STARLINK-3176,1 51106U 22005C   24143.84874383  .00001439  00000-0  10849-3 0  9993,2 51106  53.2183 353.3055 0001229  79.3191 280.7939 15.08841626130974,6917.875,95.437,540.591,538.89,0.0
51106.0,STARLINK-3176,PAYLOAD,2024-05-23 20:12:58,15.08842472,0.0001386,53.2196,348.8431,68.7146,291.3994,2.6681e-05,1.37e-06,0.0,0 STARLINK-3176,1 51106U 22005C   24144.84234496  .00000137  00000-0  26681-4 0  9995,2 51106  53.2196 348.8431 0001386  68.7146 291.3994 15.08842472130015,6917.873,95.437,540.697,538.779,0.0
51106.0,STARLINK-3176,PAYLOAD,2024-05-23 23:23:44,15.08842906,0.0001363,53.2195,348.2484,70.3801,289.7339,2.4955e-05,1.09e-06,0.0,0 STARLINK-3176,1 51106U 22005C   24144.97482408  .00000109  00000-0  24955-4 0  9998,2 51106  53.2195 348.2484 0001363  70.3801 289.7339 15.08842906131149,6917.872,95.437,540.679,538.794,0.0
51106.0,STARLINK-3176,PAYLOAD,2024-05-24 20:03:45,15.08835106,0.0001009,53.2187,344.3856,99.9071,260.2035,3.6773e-05,2.97e-06,0.0,0 STARLINK-3176,1 51106U 22005C   24145.83594737  .00000297  00000-0  36773-4 0  9992,2 51106  53.2187 344.3856 0001009  99.9071 260.2035 15.08835106131278,6917.895,95.438,540.458,539.062,0.0
51106.0,STARLINK-3176,PAYLOAD,2024-05-25 13:32:58,15.088604,7.6e-06,53.2189,341.1246,198.1082,161.9907,0.00042376,6.467e-05,0.0,0 STARLINK-3176,1 51106U 22005C   24146.56456484  .00006467  00000-0  42376-3 0  9999,2 51106  53.2189 341.1246 0000076 198.1082 161.9907 15.08860400131387,6917.818,95.436,539.736,539.63,0.0
51106.0,STARLINK-3176,PAYLOAD,2024-05-25 19:54:33,15.08825617,0.0001117,53.2187,339.9252,96.726,263.386,-3.8362e-05,-8.98e-06,0.0,0 STARLINK-3176,1 51106U 22005C   24146.82955803 -.00000898  00000-0 -38362-4 0  9992,2 51106  53.2187 339.9252 0001117  96.7260 263.3860 15.08825617131426,6917.924,95.438,540.562,539.017,0.0
51106.0,STARLINK-3176,PAYLOAD,2024-05-25 23:05:18,15.08841592,0.0001103,53.2187,339.3303,94.515,265.5968,9.6287e-05,1.245e-05,0.0,0 STARLINK-3176,1 51106U 22005C   24146.96202488  .00001245  00000-0  96287-4 0  9996,2 51106  53.2187 339.3303 0001103  94.5150 265.5968 15.08841592131441,6917.876,95.437,540.504,538.977,0.0
51106.0,STARLINK-3176,PAYLOAD,2024-05-26 05:26:50,15.08851669,0.0001242,53.2187,338.1407,116.929,243.1829,0.00014515,2.024e-05,0.0,0 STARLINK-3176,1 51106U 22005C   24147.22697613  .00002024  00000-0  14515-3 0  9993,2 51106  53.2187 338.1407 0001242 116.9290 243.1829 15.08851669131489,6917.845,95.437,540.569,538.851,0.0
51106.0,STARLINK-3176,PAYLOAD,2024-05-26 19:45:21,15.08827846,0.0001346,53.22,335.4772,109.365,250.7487,2.9977e-05,1.89e-06,0.0,0 STARLINK-3176,1 51106U 22005C   24147.82316040  .00000189  00000-0  29977-4 0  9990,2 51106  53.2200 335.4772 0001346 109.3650 250.7487 15.08827846131575,6917.918,95.438,540.714,538.851,0.0
51106.0,STARLINK-3176,PAYLOAD,2024-05-26 19:45:38,15.08605785,0.0001847,53.2198,335.477,76.2282,283.8916,-0.002449,-0.00038807,0.0,0 STARLINK-3176,1 51106U 22005C   24147.82336388 -.00038807  00000-0 -24490-2 0  9990,2 51106  53.2198 335.4770 0001847  76.2282 283.8916 15.08605785131578,6918.596,95.452,541.739,539.184,0.0
51106.0,STARLINK-3176,PAYLOAD,2024-05-27 13:14:35,15.08827785,0.0001117,53.2178,332.1913,102.6459,257.4658,-1.1097e-06,-3.05e-06,0.0,0 STARLINK-3176,1 51106U 22005C   24148.55179947 -.00000305  00000-0 -11097-5 0  9991,2 51106  53.2178 332.1913 0001117 102.6459 257.4658 15.08827785131687,6917.918,95.438,540.555,539.01,0.0
51106.0,STARLINK-3176,PAYLOAD,2024-05-27 21:11:30,15.08834029,0.0001094,53.2181,330.705,100.4292,259.6823,5.0451e-05,5.15e-06,0.0,0 STARLINK-3176,1 51106U 22005C   24148.88299591  .00000515  00000-0  50451-4 0  9992,2 51106  53.2181 330.7050 0001094 100.4292 259.6823 15.08834029130622,6917.899,95.438,540.52,539.007,0.0
51106.0,STARLINK-3176,PAYLOAD,2024-05-28 05:08:26,15.08835648,0.0001082,53.2181,329.2184,97.6527,262.4588,4.609e-05,4.46e-06,0.0,0 STARLINK-3176,1 51106U 22005C   24149.21419635  .00000446  00000-0  46090-4 0  9990,2 51106  53.2181 329.2184 0001082  97.6527 262.4588 15.08835648131784,6917.894,95.438,540.507,539.01,0.0
51106.0,STARLINK-3176,PAYLOAD,2024-05-28 21:02:17,15.08847482,0.0001096,53.2182,326.2455,98.1904,261.9212,0.00014877,2.081e-05,0.0,0 STARLINK-3176,1 51106U 22005C   24149.87658621  .00002081  00000-0  14877-3 0  9996,2 51106  53.2182 326.2455 0001096  98.1904 261.9212 15.08847482131881,6917.858,95.437,540.481,538.964,0.0
51106.0,STARLINK-3176,PAYLOAD,2024-05-29 17:42:18,15.08840685,0.0001101,53.2179,322.3791,97.7569,262.3549,0.0001719,2.449e-05,0.0,0 STARLINK-3176,1 51106U 22005C   24150.73771035  .00002449  00000-0  17190-3 0  9997,2 51106  53.2179 322.3791 0001101  97.7569 262.3549 15.08840685132018,6917.878,95.438,540.505,538.982,0.0
51106.0,STARLINK-3176,PAYLOAD,2024-05-30 11:11:32,15.08847661,0.0001199,53.2186,319.1052,92.2903,267.8227,3.7476e-05,3.09e-06,0.0,0 STARLINK-3176,1 51106U 22005C   24151.46634778  .00000309  00000-0  37476-4 0  9993,2 51106  53.2186 319.1052 0001199  92.2903 267.8227 15.08847661131012,6917.857,95.437,540.551,538.893,0.0
51106.0,STARLINK-3176,PAYLOAD,2024-05-30 17:33:04,15.08850877,0.0001172,53.2182,317.9173,96.8646,263.248,5.9208e-05,6.55e-06,0.0,0 STARLINK-3176,1 51106U 22005C   24151.73130381  .00000655  00000-0  59208-4 0  9995,2 51106  53.2182 317.9173 0001172  96.8646 263.2480 15.08850877131051,6917.847,95.437,540.523,538.901,0.0
51106.0,STARLINK-3176,PAYLOAD,2024-05-31 11:02:19,15.0884686,0.0001225,53.2181,314.6474,103.1832,256.9297,6.8447e-05,8.02e-06,0.0,0 STARLINK-3176,1 51106U 22005C   24152.45994245  .00000802  00000-0  68447-4 0  9991,2 51106  53.2181 314.6474 0001225 103.1832 256.9297 15.08846860132273,6917.859,95.437,540.572,538.877,0.0
51106.0,STARLINK-3176,PAYLOAD,2024-05-31 14:13:05,15.08846137,0.0001261,53.2185,314.0521,99.5893,260.5242,6.2864e-05,7.13e-06,0.0,0 STARLINK-3176,1 51106U 22005C   24152.59242283  .00000713  00000-0  62864-4 0  9992,2 51106  53.2185 314.0521 0001261  99.5893 260.5242 15.08846137131186,6917.862,95.437,540.599,538.854,0.0
51106.0,STARLINK-3176,PAYLOAD,2024-05-31 17:23:51,15.08845671,0.000129,53.2193,313.4598,85.7538,274.3602,3.1242e-05,2.09e-06,0.0,0 STARLINK-3176,1 51106U 22005C   24152.72490429  .00000209  00000-0  31242-4 0  9990,2 51106  53.2193 313.4598 0001290  85.7538 274.3602 15.08845671131205,6917.863,95.437,540.62,538.836,0.0
51106.0,STARLINK-3176,PAYLOAD,2024-06-01 14:03:52,15.08836375,0.0001319,53.2189,309.5943,86.8519,273.2624,3.7865e-05,3.15e-06,0.0,0 STARLINK-3176,1 51106U 22005C   24153.58602974  .00000315  00000-0  37865-4 0  9990,2 51106  53.2189 309.5943 0001319  86.8519 273.2624 15.08836375131330,6917.891,95.438,540.669,538.844,0.0
51106.0,STARLINK-3176,PAYLOAD,2024-06-01 20:25:25,15.08846174,0.0001419,53.2193,308.4039,100.1462,259.969,-0.00015779,-2.799e-05,0.0,0 STARLINK-3176,1 51106U 22005C   24153.85098760 -.00002799  00000-0 -15779-3 0  9991,2 51106  53.2193 308.4039 0001419 100.1462 259.9690 15.08846174132486,6917.862,95.437,540.708,538.745,0.0
51106.0,STARLINK-3176,PAYLOAD,2024-06-02 10:43:54,15.08830484,0.0001497,53.2192,305.7307,92.3818,267.7345,3.0517e-05,1.98e-06,0.0,0 STARLINK-3176,1 51106U 22005C   24154.44715533  .00000198  00000-0  30517-4 0  9998,2 51106  53.2192 305.7307 0001497  92.3818 267.7345 15.08830484132577,6917.909,95.438,540.81,538.739,0.0
51106.0,STARLINK-3176,PAYLOAD,2024-06-03 02:37:45,15.08836386,0.0001527,53.2186,302.7578,91.2141,268.9026,4.4877e-05,4.26e-06,0.0,0 STARLINK-3176,1 51106U 22005C   24155.10955459  .00000426  00000-0  44877-4 0  9993,2 51106  53.2186 302.7578 0001527  91.2141 268.9026 15.08836386131562,6917.891,95.438,540.813,538.7,0.0
51106.0,STARLINK-3176,PAYLOAD,2024-06-03 18:31:37,15.08834205,0.0001425,53.2183,299.7829,98.8996,261.2158,0.00011709,1.576e-05,0.0,0 STARLINK-3176,1 51106U 22005C   24155.77195729  .00001576  00000-0  11709-3 0  9996,2 51106  53.2183 299.7829 0001425  98.8996 261.2158 15.08834205132775,6917.898,95.438,540.749,538.777,0.0
51106.0,STARLINK-3176,PAYLOAD,2024-06-04 02:28:31,15.08854538,0.0001005,53.2191,298.2946,89.5696,270.5411,0.00020976,3.053e-05,0.0,0 STARLINK-3176,1 51106U 22005C   24156.10314041  .00003053  00000-0  20976-3 0  9992,2 51106  53.2191 298.2946 0001005  89.5696 270.5411 15.08854538132828,6917.836,95.437,540.396,539.006,0.0
51106.0,STARLINK-3176,PAYLOAD,2024-06-05 02:19:19,15.08840905,0.0001814,53.2198,293.8339,87.5123,272.6077,0.0001156,1.552e-05,0.0,0 STARLINK-3176,1 51106U 22005C   24157.09675522  .00001552  00000-0  11560-3 0  9996,2 51106  53.2198 293.8339 0001814  87.5123 272.6077 15.08840905132973,6917.878,95.437,540.998,538.488,0.0
51106.0,STARLINK-3176,PAYLOAD,2024-06-05 08:40:53,15.08825949,0.0001768,53.2161,292.6429,89.8487,270.2708,-1.2708e-05,-4.9e-06,0.0,0 STARLINK-3176,1 51106U 22005C   24157.36172726 -.00000490  00000-0 -12708-4 0  9992,2 51106  53.2161 292.6429 0001768  89.8487 270.2708 15.08825949133018,6917.923,95.438,541.011,538.565,0.0
51106.0,STARLINK-3176,PAYLOAD,2024-06-06 02:10:07,15.08839032,0.000184,53.2152,289.3724,90.733,269.3872,-8.5234e-05,-1.644e-05,0.0,0 STARLINK-3176,1 51106U 22005C   24158.09036461 -.00001644  00000-0 -85234-4 0  9994,2 51106  53.2152 289.3724 0001840  90.7330 269.3872 15.08839032133129,6917.883,95.438,541.021,538.475,0.0
